SCD 1                   
1 22490U 93009B   26183.82514741  .00000469  00000+0  77249-4 0  9991
2 22490  24.9689 111.0183 0041646 303.6699  92.1772 14.46125027763386
TECHSAT 1B (GO-32)      
1 25397U 98043D   26183.72856333  .00000062  00000+0  46868-4 0  9990
2 25397  99.0074 176.8795 0001776 134.8948 225.2374 14.24431411453549
SCD 2                   
1 25504U 98060A   26183.78182816  .00000409  00000+0  63291-4 0  9997
2 25504  24.9965 335.9892 0016542 288.3013 203.0326 14.45531698462582
DLR-TUBSAT              
1 25757U 99029B   26183.86260661  .00000117  00000+0  40589-4 0  9998
2 25757  98.6702 179.8828 0013217 305.5148  54.4813 14.52430931435529
TERRA                   
1 25994U 99068A   26183.84729774  .00000473  00000+0  10519-3 0  9991
2 25994  97.9447 232.7721 0002763 147.9475 327.8787 14.61115956411894
MAROC-TUBSAT            
1 27004U 01056D   26183.77530162 -.00000035  00000+0  12887-4 0  9994
2 27004  99.8090   0.9291 0020612 102.6599 326.8055 13.70263068228326
AQUA                    
1 27424U 02022A   26183.85604147  .00000914  00000+0  19150-3 0  9992
2 27424  98.4285 153.4526 0000691  82.2716 307.8036 14.62182391285565
SHIYAN-1 (SY-1)         
1 28220U 04012A   26183.18725711  .00015404  00000+0  46818-3 0  9996
2 28220  97.8689 262.2336 0004345 335.4967  24.6068 15.34147176213393
AURA                    
1 28376U 04026A   26183.80287163  .00000886  00000+0  18908-3 0  9993
2 28376  98.3423 140.3861 0001182  86.3557 273.7778 14.61353001168499
IRS-P5 (CARTOSAT-1)     
1 28649U 05017A   26183.78149138  .00001527  00000+0  15937-3 0  9995
2 28649  97.5304 206.1385 0002090  61.9519 298.1911 14.91091659146148
SINAH 1                 
1 28893U 05043D   26183.84048269  .00000437  00000+0  92345-4 0  9993
2 28893  98.2881 318.2561 0013555 223.4457 136.5678 14.64168831102810
RESURS-DK 1             
1 29228U 06021A   26183.76762882  .00002578  00000+0  15058-3 0  9991
2 29228  69.9340 299.2211 0006700 284.6329  75.4094 15.13281648104934
ARIRANG-2 (KOMPSAT-2)   
1 29268U 06031A   26183.87766527  .00000472  00000+0  97054-4 0  9996
2 29268  97.8304   7.5647 0015288  28.7602  78.4206 14.64670163 63776
LAPAN-TUBSAT            
1 29709U 07001A   26183.87670454  .00000362  00000+0  48008-4 0  9990
2 29709  98.1340 183.4547 0013122 130.2304 230.0060 14.85964251 53484
HAIYANG-1B              
1 31113U 07010A   26183.87683455  .00000113  00000+0  58629-4 0  9991
2 31113  98.3503 165.1140 0014047 150.1147 210.0842 14.31030925  2885
COSMO-SKYMED 1          
1 31598U 07023A   26183.84133584  .00002124  00000+0  18898-3 0  9999
2 31598  97.8852  15.8293 0001329  82.7913 277.3459 14.97178003 32136
TERRASAR-X              
1 31698U 07026A   26182.61687754  .00000688  00000+0  35949-4 0  9990
2 31698  97.4453 190.1187 0001948  88.1804 271.9654 15.19153219 55415
WORLDVIEW-1 (WV-1)      
1 32060U 07041A   26183.84967913  .00007227  00000+0  29731-3 0  9992
2 32060  97.3897 303.3707 0000979 301.0019  59.1122 15.24442026 45265
YAOGAN-3                
1 32289U 07055A   26183.83320922  .00002546  00000+0  26421-3 0  9994
2 32289  97.8141 213.5565 0001789  84.6996 275.4426 14.90840556  8202
COSMO-SKYMED 2          
1 32376U 07059A   26183.82348219  .00000471  00000+0  65694-4 0  9994
2 32376  97.8889   7.1948 0001319  90.6405 269.4959 14.82158482  4325
RADARSAT-2              
1 32382U 07061A   26183.85122760  .00000078  00000+0  47175-4 0  9995
2 32382  98.5773 190.5597 0001320  84.7875 275.3458 14.29981022968195
CARTOSAT-2A             
1 32783U 08021A   26183.87501733  .00000369  00000+0  56374-4 0  9994
2 32783  97.7624 232.0478 0013220  63.5410 296.7156 14.79260539981126
HUANJING 1A (HJ-1A)     
1 33320U 08041A   26183.87676713  .00001223  00000+0  15245-3 0  9996
2 33320  97.6686 169.1088 0020710  86.7514 273.6069 14.84024072960739
HUANJING 1B (HJ-1B)     
1 33321U 08041B   26183.85301640  .00000985  00000+0  12506-3 0  9990
2 33321  97.6520 172.2102 0037459 130.2533 230.1968 14.83343974960733
GEOEYE 1                
1 33331U 08042A   26183.79596638  .00000569  00000+0  11602-3 0  9992
2 33331  98.1333 257.5367 0004873  25.4054 334.7387 14.64640940952435
THEOS                   
1 33396U 08049A   26183.89186215 -.00000200  00000+0 -73961-4 0  9998
2 33396  98.5564 240.6650 0001147  80.0096 280.1210 14.20134550920192
COSMO-SKYMED 3          
1 33412U 08054A   26183.87965956  .00004758  00000+0  32095-3 0  9990
2 33412  97.8264  42.7095 0014802 209.0684 150.9720 15.07053522959302
YAOGAN-4                
1 33446U 08061A   26183.75087277  .00001206  00000+0  15398-3 0  9995
2 33446  97.9306 117.1464 0014910  25.5664 334.6284 14.83231728947978
GOSAT (IBUKI)           
1 33492U 09002A   26183.82025478  .00000206  00000+0  44788-4 0  9990
2 33492  98.0906 294.7066 0001255  80.4689 279.6658 14.67538859933753
DEIMOS-1                
1 35681U 09041A   26183.71867801  .00000313  00000+0  53319-4 0  9996
2 35681  97.7418 340.2736 0002419 109.5257 250.6214 14.75252250909170
DUBAISAT-1              
1 35682U 09041B   26183.35112951  .00001027  00000+0  15962-3 0  9990
2 35682  98.0071 316.4441 0010902  29.3148 330.8670 14.75149388907332
